COSMOS 2251 DEB         
1 39590U 93036BUV 17345.17538285  .00001510  00000-0  36146-3 0  9996
2 39590  74.0299 158.2010 0015700 219.8487 261.8524 14.54366745337150
